{
  "type": "FeatureCollection",
  "features": [
    {
      "type": "Feature",
      "properties": {
        "norad_id": 46997,
        "name": "FENGYUN 1C DEB",
        "group": "fengyun-1c-debris",
        "lat": -77.65042589555961,
        "lon": 78.33951152395225,
        "alt_km": 790.8630662170035,
        "timestamp": "2025-12-20T16:47:36.577498+00:00",
        "meta_object_name": "FENGYUN 1C DEB",
        "meta_object_id": "1999-025EZX",
        "meta_epoch": "2025-12-14T20:44:05.032032",
        "meta_mean_motion": 14.28011803,
        "meta_eccentricity": 0.00246638,
        "meta_inclination": 98.5587,
        "meta_ra_of_asc_node": 29.1623,
        "meta_arg_of_pericenter": 329.7037,
        "meta_mean_anomaly": 205.3871,
        "meta_ephemeris_type": 0,
        "meta_classification_type": "U",
        "meta_norad_cat_id": 46997,
        "meta_element_set_no": 999,
        "meta_rev_at_epoch": 62481,
        "meta_bstar": 0.00094694744,
        "meta_mean_motion_dot": 2.314e-05,
        "meta_mean_motion_ddot": 0,
        "tle_line1": "1 46997U 99025EZX 25348.86394713  .00002314  00000+0  94695-3 0  9998",
        "tle_line2": "2 46997  98.5587  29.1623 0024663 329.7037 205.3871 14.28011803624819"
      },
      "geometry": {
        "type": "Point",
        "coordinates": [
          78.33951152395225,
          -77.65042589555961
        ]
      }
    },
    {
      "type": "Feature",
      "properties": {
        "norad_id": 47001,
        "name": "FENGYUN 1C DEB",
        "group": "fengyun-1c-debris",
        "lat": -61.28779507571015,
        "lon": -144.017313000696,
        "alt_km": 799.7791747012752,
        "timestamp": "2025-12-20T16:47:36.577509+00:00",
        "meta_object_name": "FENGYUN 1C DEB",
        "meta_object_id": "1999-025FAB",
        "meta_epoch": "2025-12-20T10:39:37.819872",
        "meta_mean_motion": 14.38526767,
        "meta_eccentricity": 0.0051155,
        "meta_inclination": 99.3048,
        "meta_ra_of_asc_node": 53.1219,
        "meta_arg_of_pericenter": 26.8818,
        "meta_mean_anomaly": 333.5001,
        "meta_ephemeris_type": 0,
        "meta_classification_type": "U",
        "meta_norad_cat_id": 47001,
        "meta_element_set_no": 999,
        "meta_rev_at_epoch": 74025,
        "meta_bstar": 0.00095782,
        "meta_mean_motion_dot": 2.923e-05,
        "meta_mean_motion_ddot": 0,
        "tle_line1": "1 47001U 99025FAB 25354.44418773  .00002923  00000+0  95782-3 0  9993",
        "tle_line2": "2 47001  99.3048  53.1219 0051155  26.8818 333.5001 14.38526767740250"
      },
      "geometry": {
        "type": "Point",
        "coordinates": [
          -144.017313000696,
          -61.28779507571015
        ]
      }
    },
    {
      "type": "Feature",
      "properties": {
        "norad_id": 47005,
        "name": "FENGYUN 1C DEB",
        "group": "fengyun-1c-debris",
        "lat": -72.41434992640185,
        "lon": -128.1143626186915,
        "alt_km": 825.1871899010021,
        "timestamp": "2025-12-20T16:47:36.577519+00:00",
        "meta_object_name": "FENGYUN 1C DEB",
        "meta_object_id": "1999-025FAF",
        "meta_epoch": "2025-12-03T11:49:12.815616",
        "meta_mean_motion": 14.10913141,
        "meta_eccentricity": 0.00635736,
        "meta_inclination": 99.6019,
        "meta_ra_of_asc_node": 65.7889,
        "meta_arg_of_pericenter": 267.3996,
        "meta_mean_anomaly": 108.1197,
        "meta_ephemeris_type": 0,
        "meta_classification_type": "U",
        "meta_norad_cat_id": 47005,
        "meta_element_set_no": 999,
        "meta_rev_at_epoch": 82637,
        "meta_bstar": 0.0032335345,
        "meta_mean_motion_dot": 5.865e-05,
        "meta_mean_motion_ddot": 0,
        "tle_line1": "1 47005U 99025FAF 25337.49250944  .00005865  00000+0  32335-2 0  9999",
        "tle_line2": "2 47005  99.6019  65.7889 0063573 267.3996 108.1197 14.10913141826379"
      },
      "geometry": {
        "type": "Point",
        "coordinates": [
          -128.1143626186915,
          -72.41434992640185
        ]
      }
    },
    {
      "type": "Feature",
      "properties": {
        "norad_id": 47007,
        "name": "FENGYUN 1C DEB",
        "group": "fengyun-1c-debris",
        "lat": -11.799372176388253,
        "lon": -142.43152335339494,
        "alt_km": 779.8048304883505,
        "timestamp": "2025-12-20T16:47:36.577529+00:00",
        "meta_object_name": "FENGYUN 1C DEB",
        "meta_object_id": "1999-025FAH",
        "meta_epoch": "2025-12-16T09:44:03.870240",
        "meta_mean_motion": 13.97251993,
        "meta_eccentricity": 0.02368252,
        "meta_inclination": 98.2082,
        "meta_ra_of_asc_node": 211.9995,
        "meta_arg_of_pericenter": 43.4139,
        "meta_mean_anomaly": 318.5411,
        "meta_ephemeris_type": 0,
        "meta_classification_type": "U",
        "meta_norad_cat_id": 47007,
        "meta_element_set_no": 999,
        "meta_rev_at_epoch": 78900,
        "meta_bstar": 0.0020308596,
        "meta_mean_motion_dot": 3.573e-05,
        "meta_mean_motion_ddot": 0,
        "tle_line1": "1 47007U 99025FAH 25350.40560035  .00003573  00000+0  20309-2 0  9994",
        "tle_line2": "2 47007  98.2082 211.9995 0236825  43.4139 318.5411 13.97251993789001"
      },
      "geometry": {
        "type": "Point",
        "coordinates": [
          -142.43152335339494,
          -11.799372176388253
        ]
      }
    },
    {
      "type": "Feature",
      "properties": {
        "norad_id": 47009,
        "name": "FENGYUN 1C DEB",
        "group": "fengyun-1c-debris",
        "lat": 23.83057062968425,
        "lon": -26.423970980841606,
        "alt_km": 1330.6483797971714,
        "timestamp": "2025-12-20T16:47:36.577539+00:00",
        "meta_object_name": "FENGYUN 1C DEB",
        "meta_object_id": "1999-025FAK",
        "meta_epoch": "2025-12-02T05:09:31.123584",
        "meta_mean_motion": 13.37303446,
        "meta_eccentricity": 0.0352227,
        "meta_inclination": 98.9376,
        "meta_ra_of_asc_node": 321.2954,
        "meta_arg_of_pericenter": 285.6992,
        "meta_mean_anomaly": 70.555,
        "meta_ephemeris_type": 0,
        "meta_classification_type": "U",
        "meta_norad_cat_id": 47009,
        "meta_element_set_no": 999,
        "meta_rev_at_epoch": 58668,
        "meta_bstar": 0.00057132,
        "meta_mean_motion_dot": 3.87e-06,
        "meta_mean_motion_ddot": 0,
        "tle_line1": "1 47009U 99025FAK 25336.21494356  .00000387  00000+0  57132-3 0  9996",
        "tle_line2": "2 47009  98.9376 321.2954 0352227 285.6992  70.5550 13.37303446586681"
      },
      "geometry": {
        "type": "Point",
        "coordinates": [
          -26.423970980841606,
          23.83057062968425
        ]
      }
    },
    {
      "type": "Feature",
      "properties": {
        "norad_id": 47012,
        "name": "FENGYUN 1C DEB",
        "group": "fengyun-1c-debris",
        "lat": 41.48171674432524,
        "lon": 60.3934104924119,
        "alt_km": 977.872306501451,
        "timestamp": "2025-12-20T16:47:36.577549+00:00",
        "meta_object_name": "FENGYUN 1C DEB",
        "meta_object_id": "1999-025FAN",
        "meta_epoch": "2025-12-05T22:22:36.481152",
        "meta_mean_motion": 13.77908149,
        "meta_eccentricity": 0.01638485,
        "meta_inclination": 98.755,
        "meta_ra_of_asc_node": 218.9381,
        "meta_arg_of_pericenter": 81.7177,
        "meta_mean_anomaly": 280.2518,
        "meta_ephemeris_type": 0,
        "meta_classification_type": "U",
        "meta_norad_cat_id": 47012,
        "meta_element_set_no": 999,
        "meta_rev_at_epoch": 54479,
        "meta_bstar": 0.00065808903,
        "meta_mean_motion_dot": 6.91e-06,
        "meta_mean_motion_ddot": 0,
        "tle_line1": "1 47012U 99025FAN 25339.93236668  .00000691  00000+0  65809-3 0  9990",
        "tle_line2": "2 47012  98.7550 218.9381 0163848  81.7177 280.2518 13.77908149544797"
      },
      "geometry": {
        "type": "Point",
        "coordinates": [
          60.3934104924119,
          41.48171674432524
        ]
      }
    },
    {
      "type": "Feature",
      "properties": {
        "norad_id": 47015,
        "name": "FENGYUN 1C DEB",
        "group": "fengyun-1c-debris",
        "lat": -1.0281857466772315,
        "lon": 52.34173050284533,
        "alt_km": 602.7238742385889,
        "timestamp": "2025-12-20T16:47:36.577579+00:00",
        "meta_object_name": "FENGYUN 1C DEB",
        "meta_object_id": "1999-025FAR",
        "meta_epoch": "2025-12-20T10:20:25.475424",
        "meta_mean_motion": 14.87477483,
        "meta_eccentricity": 0.0175384,
        "meta_inclination": 98.7094,
        "meta_ra_of_asc_node": 51.8891,
        "meta_arg_of_pericenter": 88.0341,
        "meta_mean_anomaly": 274.0948,
        "meta_ephemeris_type": 0,
        "meta_classification_type": "U",
        "meta_norad_cat_id": 47015,
        "meta_element_set_no": 999,
        "meta_rev_at_epoch": 64496,
        "meta_bstar": 0.00039688,
        "meta_mean_motion_dot": 4.702e-05,
        "meta_mean_motion_ddot": 0,
        "tle_line1": "1 47015U 99025FAR 25354.43085041  .00004702  00000+0  39688-3 0  9995",
        "tle_line2": "2 47015  98.7094  51.8891 0175384  88.0341 274.0948 14.87477483644966"
      },
      "geometry": {
        "type": "Point",
        "coordinates": [
          52.34173050284533,
          -1.0281857466772315
        ]
      }
    }
  ]
}